IRIDIUM 63              
1 25286U 98021B   25237.55547000  .00000339  00000+0  10875-3 0  9996
2 25286  86.3941  53.0080 0002308  87.6641 272.4820 14.36587472433807
IRIDIUM 69              
1 25319U 98026A   25237.56341897  .00000369  00000+0  10857-3 0  9998
2 25319  86.3920  66.0846 0003814 123.8661 236.2902 14.41020768433055
IRIDIUM 71              
1 25320U 98026B   25237.56130374  .00000347  00000+0  10147-3 0  9994
2 25320  86.3925  60.7640 0001906 151.7188 208.4115 14.41203515433587
IRIDIUM 73              
1 25344U 98032C   25237.47124771  .00000540  00000+0  12920-3 0  9997
2 25344  86.4440  17.3792 0002847  98.4325 261.7203 14.51780379440618
IRIDIUM 82              
1 25467U 98051A   25237.58321610  .00022921  00000+0  59914-3 0  9998
2 25467  86.3602  75.5235 0081015  34.0563 326.5848 15.35250746434593
